[{"OBJECT_NAME":"STARLINK-4723","OBJECT_ID":"2022-111AA","EPOCH":"2026-03-09T19:56:39.443712","MEAN_MOTION":15.08844385,"ECCENTRICITY":0.00013674,"INCLINATION":53.2164,"RA_OF_ASC_NODE":273.0518,"ARG_OF_PERICENTER":89.5075,"MEAN_ANOMALY":270.6074,"EPHEMERIS_TYPE":0,"CLASSIFICATION_TYPE":"U","NORAD_CAT_ID":53797,"ELEMENT_SET_NO":999,"REV_AT_EPOCH":19370,"BSTAR":4.5328823e-5,"MEAN_MOTION_DOT":4.34e-6,"MEAN_MOTION_DDOT":0},{"OBJECT_NAME":"LEMUR-2-KREMPEL-BRO2","OBJECT_ID":"2025-061C","EPOCH":"2026-03-09T20:43:52.091904","MEAN_MOTION":15.13192951,"ECCENTRICITY":0.00179248,"INCLINATION":97.5616,"RA_OF_ASC_NODE":45.5365,"ARG_OF_PERICENTER":236.8576,"MEAN_ANOMALY":123.0936,"EPHEMERIS_TYPE":0,"CLASSIFICATION_TYPE":"U","NORAD_CAT_ID":63353,"ELEMENT_SET_NO":999,"REV_AT_EPOCH":5258,"BSTAR":0.00044346981,"MEAN_MOTION_DOT":7.837e-5,"MEAN_MOTION_DDOT":0}]
